1 37781U 11043A   19062.90621792  .00000636  00000-0  66901-3 0  9999
2 37781  99.3228  73.6822 0001730 105.3996 254.7411 13.78718401380064
1 37781U 11043A   19063.19649478  .00000768  00000-0  79936-3 0  9990
2 37781  99.3226  73.9663 0001755 107.2950 252.8411 13.78720016380105
1 37781U 11043A   19063.55934315 -.00001067  00000-0 -10072-2 0  9997
2 37781  99.3229  74.3236 0001791 108.2608 251.8718 13.78716595380151
1 37781U 11043A   19063.84962388  .00000169  00000-0  20920-3 0  9994
2 37781  99.3229  74.6109 0001881 106.6107 253.5270 13.78717091380197
1 37781U 11043A   19064.21247140  .00000674  00000-0  70642-3 0  9995
2 37781  99.3227  74.9686 0001886 106.5738 253.5629 13.78719183380240
1 37781U 11043A   19064.50275004 -.00000842  00000-0 -78599-3 0  9995
2 37781  99.3228  75.2544 0001876 104.4989 255.6336 13.78716730380289
1 37781U 11043A   19064.86560108  .00000529  00000-0  56426-3 0  9991
2 37781  99.3225  75.6108 0001944  97.2382 262.9002 13.78717538380332
1 37781U 11043A   19065.22844841  .00001265  00000-0  12884-2 0  9998
2 37781  99.3224  75.9675 0001909  99.3197 260.8172 13.78719988380382
1 37781U 11043A   19065.51872763 -.00000040  00000-0  37814-5 0  9998
2 37781  99.3224  76.2531 0002009  89.9259 270.2070 13.78717740380424
1 37781U 11043A   19066.11937773 -.00000040 +00000-0 +37814-5 0  9998
2 37781 099.3216 076.8408 0001746 087.6419 012.1602 13.78717541380506
1 37781U 11043A   19067.84096069 -.00000040  00000-0  37814-5 0  9993
2 37781  99.3224  78.5343 0002211 109.0559 251.0933 13.78718166380745
1 37781U 11043A   19068.52716443  .00000367  00000-0  40409-3 0  9997
2 37781  99.3226  79.2092 0002217 108.8166  55.4200 13.78719320380839
1 37781U 11043A   19068.63922463 -.00000170  00000-0 -12444-3 0  9992
2 37781  99.3226  79.3194 0002191 107.0682 253.0673 13.78717940380856
1 37781U 11043A   19069.14721386 -.00000289  00000-0 -24094-3 0  9995
2 37781  99.3225  79.8194 0002070 107.5770 252.5620 13.78717196380926
1 37781U 11043A   19069.51006180  .00000394  00000-0  43055-3 0  9997
2 37781  99.3227  80.1762 0001989 105.5643 254.5731 13.78718872380971
1 37781U 11043A   19069.80034119  .00000005  00000-0  48546-4 0  9992
2 37781  99.3228  80.4612 0002010 106.8732 253.2629 13.78717510381014
1 37781U 11043A   19070.16319024 -.00000160  00000-0 -11449-3 0  9999
2 37781  99.3228  80.8181 0001969 104.7976 255.3396 13.78717233381069
1 37781U 11043A   19070.52603905 -.00000106  00000-0 -60792-4 0  9999
2 37781  99.3227  81.1742 0001887 100.7202 259.4162 13.78717424381116
1 37781U 11043A   19070.81631869 -.00000239  00000-0 -19241-3 0  9990
2 37781  99.3227  81.4596 0001933 102.1752 257.9633 13.78716817381159
1 37781U 11043A   19071.17916667 -.00000116  00000-0 -71106-4 0  9995
2 37781  99.3226  81.8163 0001892 102.3294 257.8076 13.78717386381207
1 37781U 11043A   19071.46944546 -.00000088  00000-0 -43833-4 0  9998
2 37781  99.3225  82.1013 0001876 101.3624 258.7748 13.78717610381242
1 37781U 11043A   19071.83229448 -.00000205  00000-0 -15811-3 0  9991
2 37781  99.3224  82.4578 0001866 102.1395 257.9972 13.78717000381291
1 37781U 11043A   19072.19514257 -.00000064  00000-0 -19836-4 0  9991
2 37781  99.3225  82.8146 0001847 102.1541 257.9829 13.78717731381347
1 37781U 11043A   19072.48542127 -.00000032  00000-0  11793-4 0  9998
2 37781  99.3225  83.1004 0001819 100.4302 259.7061 13.78717918381388
1 37781U 11043A   19072.84827000 -.00000016  00000-0  27958-4 0  9996
2 37781  99.3224  83.4568 0001803 100.5910 259.5440 13.78717823381434
1 37781U 11043A   19073.13854855  .00000082  00000-0  12377-3 0  9997
2 37781  99.3224  83.7423 0001805 101.1504 258.9857 13.78718426381474
1 37781U 11043A   19073.50139673  .00000161  00000-0  20178-3 0  9998
2 37781  99.3225  84.0989 0001767 101.2943 258.8414 13.78718908381520
1 37781U 11043A   19073.86424539  .00000084  00000-0  12565-3 0  9990
2 37781  99.3226  84.4554 0001780 101.4767 258.6573 13.78718474381571
1 37781U 11043A   19074.15452428  .00000084  00000-0  12634-3 0  9998
2 37781  99.3225  84.7409 0001771 101.1731 258.9618 13.78718576381611
1 37781U 11043A   19074.51737307  .00000031  00000-0  73940-4 0  9990
2 37781  99.3228  85.0977 0001752  98.7163 261.4177 13.78718295381669
1 37781U 11043A   19074.80765259 -.00000032  00000-0  11493-4 0  9996
2 37781  99.3228  85.3830 0001765  98.5319 261.6023 13.78717805381708
1 37781U 11043A   19075.17050116 -.00000011  00000-0  32056-4 0  9991
2 37781  99.3226  85.7397 0001759  98.1016 262.0336 13.78718022381750
1 37781U 11043A   19075.46078006 -.00000010  00000-0  33603-4 0  9999
2 37781  99.3226  86.0249 0001756  97.1687 262.9667 13.78718073381796
1 37781U 11043A   19075.82362897 -.00000049  00000-0 -50113-5 0  9992
2 37781  99.3224  86.3813 0001765  97.7655 262.3698 13.78717774381846
1 37781U 11043A   19076.18647740 -.00000046  00000-0 -15951-5 0  9993
2 37781  99.3222  86.7378 0001731  96.7510 263.3839 13.78717867381892
1 37781U 11043A   19077.05731424  .00000004  00000-0  47247-4 0  9997
2 37781  99.3221  87.5945 0001769  95.8936 264.2448 13.78718289382013
1 37781U 11043A   19077.20245305  .00000013  00000-0  55958-4 0  9990
2 37781  99.3223  87.7371 0001761  95.6922 264.4436 13.78718386382034
1 37781U 11043A   19077.49273179  .00000007  00000-0  50288-4 0  9995
2 37781  99.3223  88.0225 0001762  94.7045 265.4308 13.78718384382074
1 37781U 11043A   19077.85558078 -.00000023  00000-0  20884-4 0  9997
2 37781  99.3221  88.3790 0001775  93.8176 266.3178 13.78718128382128
1 37781U 11043A   19078.21842891 -.00000010  00000-0  33671-4 0  9991
2 37781  99.3219  88.7358 0001755  94.2676 265.8673 13.78718309382177
1 37781U 11043A   19078.50870775 -.00000013 +00000-0 +30885-4 0  9992
2 37781 099.3220 089.0211 0001752 094.0058 266.1292 13.78718320382219
1 37781U 11043A   19078.87155651 -.00000011  00000-0  32116-4 0  9998
2 37781  99.3219  89.3777 0001756  93.9661 266.1693 13.78718298382263
1 37781U 11043A   19079.01669590 -.00000010  00000-0  33458-4 0  9996
2 37781  99.3219  89.5206 0001740  94.1729 265.9629 13.78718337382285
1 37781U 11043A   19079.45211403 -.00000002  00000-0  41230-4 0  9998
2 37781  99.3218  89.9482 0001762  93.9656 266.1705 13.78718460382346
1 37781U 11043A   19079.81496257 -.00000017  00000-0  26528-4 0  9999
2 37781  99.3219  90.3052 0001781  93.8357 266.2990 13.78718300382399
1 37781U 11043A   19080.10524124  .00000000  00000-0  43437-4 0  9997
2 37781  99.3217  90.5904 0001767  93.7473 266.3879 13.78718487382435
1 37781U 11043A   19080.25038069 -.00000001  00000-0  42493-4 0  9994
2 37781  99.3217  90.7331 0001770  93.4270 266.7084 13.78718494382459
1 37781U 11043A   19080.83093826  .00000003  00000-0  46169-4 0  9995
2 37781  99.3214  91.3035 0001767  93.2493 266.8856 13.78718535382538
1 37781U 11043A   19081.12121692  .00000004  00000-0  47399-4 0  9998
2 37781  99.3214  91.5888 0001764  92.3215 267.8136 13.78718626382572
1 37781U 11043A   19081.48406545  .00000001  00000-0  44454-4 0  9996
2 37781  99.3213  91.9453 0001771  92.0673 268.0684 13.78718659382629
1 37781U 11043A   19081.77434430  .00000002  00000-0  45063-4 0  9990
2 37781  99.3213  92.2308 0001780  91.7048 268.4304 13.78718620382669
1 37781U 11043A   19082.13719271 -.00000000  00000-0  43023-4 0  9993
2 37781  99.3210  92.5874 0001761  91.2439 268.8922 13.78718725382717
1 37781U 11043A   19082.79031991 -.00000017  00000-0  26743-4 0  9999
2 37781  99.3211  93.2295 0001747  89.4174 270.7170 13.78718590382809
1 37781U 11043A   19083.08059881 -.00000019  00000-0  24071-4 0  9994
2 37781  99.3212  93.5148 0001747  89.0462 271.0891 13.78718610382847
1 37781U 11043A   19083.51601694 -.00000019  00000-0  24863-4 0  9996
2 37781  99.3212  93.9427 0001753  88.6728 271.4626 13.78718643382901
1 37781U 11043A   19083.87886578 -.00000047  00000-0 -34553-5 0  9991
2 37781  99.3211  94.2995 0001758  87.9359 272.1986 13.78718337382953
1 37781U 11043A   19084.16914468 -.00000026  00000-0  17580-4 0  9990
2 37781  99.3212  94.5846 0001744  86.7222 273.4135 13.78718518382998
1 37781U 11043A   19084.53199303 -.00000022  00000-0  21311-4 0  9997
2 37781  99.3213  94.9413 0001747  85.8250 274.3102 13.78718573383049
1 37781U 11043A   19084.82227209 -.00000051  00000-0 -73689-5 0  9995
2 37781  99.3213  95.2265 0001753  85.5817 274.5525 13.78718277383087
1 37781U 11043A   19084.96741172 -.00000044  00000-0  11863-6 0  9998
2 37781  99.3212  95.3692 0001741  85.5656 274.5707 13.78718376383104
1 37781U 11043A   19085.25769031 -.00000039  00000-0  44987-5 0  9991
2 37781  99.3213  95.6549 0001779  83.8592 276.2763 13.78718430383146
1 37781U 11043A   19085.54796912 -.00000037  00000-0  65989-5 0  9994
2 37781  99.3213  95.9400 0001752  85.3539 274.7826 13.78718482383188
1 37781U 11043A   19085.83824776 -.00000038  00000-0  62413-5 0  9996
2 37781  99.3214  96.2253 0001762  84.6971 275.4380 13.78718451383226
1 37781U 11043A   19086.20109594 -.00000021  00000-0  22970-4 0  9997
2 37781  99.3213  96.5820 0001743  83.8934 276.2417 13.78718650383273
1 37781U 11043A   19086.56394432 -.00000020  00000-0  23961-4 0  9993
2 37781  99.3214  96.9387 0001752  83.4253 276.7100 13.78718698383328
1 37781U 11043A   19086.85422338 -.00000038  00000-0  60409-5 0  9990
2 37781  99.3214  97.2240 0001754  83.4515 276.6834 13.78718492383362
1 37781U 11043A   19087.21707151 -.00000026  00000-0  17658-4 0  9994
2 37781  99.3214  97.5808 0001772  83.1937 276.9416 13.78718677383410
1 37781U 11043A   19087.36221089 -.00000018  00000-0  25358-4 0  9998
2 37781  99.3217  97.7239 0001814  82.7685 277.3677 13.78718762383436
1 37781U 11043A   19087.50735019 -.00000018 +00000-0 +25411-4 0  9997
2 37781 099.3218 097.8670 0001816 083.8353 276.3002 13.78718723383453
1 37781U 11043A   19087.72505932 -.00000053  00000-0 -90093-5 0  9999
2 37781  99.3220  98.0810 0001841  84.2098 275.9238 13.78718383383485
1 37781U 11043A   19087.87019924 -.00000066  00000-0 -21572-4 0  9995
2 37781  99.3222  98.2239 0001883  85.3092 274.8267 13.78718255383507
